SHIELDS 1               
1 43850U 18104B   22295.56092802  .00004497  00000+0  18076-3 0  9994
2 43850  85.0275 327.8364 0015005 148.6091 211.6051 15.24521812213869
STF-1                   
1 43852U 18104D   22296.12460172  .00014453  00000+0  50662-3 0  9998
2 43852  85.0291 327.3281 0013279 155.2756 204.9129 15.29247425214036
ZACUBE-2                
1 43907U 18111AH  22296.17177336  .00010778  00000+0  37373-3 0  9999
2 43907  97.1693 177.9485 0018879 351.7243 159.6503 15.29809411212801
LUME 1                  
1 43908U 18111AJ  22295.66046922  .00014040  00000+0  44049-3 0  9993
2 43908  97.1712 179.5185 0016731 347.2604  12.8214 15.33008255212862
AOBA VELOX-IV           
1 43940U 19003J   22295.73423957  .00048846  00000+0  10394-2 0  9991
2 43940  97.1153 328.2916 0015703  50.1443 310.1185 15.44682182209722
MOVE-IIB                
1 44398U 19038N   22295.88205027  .00018669  00000+0  81627-3 0  9997
2 44398  97.6405 266.7403 0021663  54.6781 305.6465 15.21916917182392
SONATE                  
1 44400U 19038Q   22295.91829143  .00006719  00000+0  35196-3 0  9999
2 44400  97.6551 265.1837 0024636  56.3705 303.9873 15.15877209182230
LUCKY-7                 
1 44406U 19038W   22295.83071430  .00009044  00000+0  45689-3 0  9996
2 44406  97.6541 265.7720 0023807  54.6797 305.6656 15.17065453182266
BEESAT 9                
1 44412U 19038AC  22296.35317740  .00014051  00000+0  66923-3 0  9996
2 44412  97.6502 266.8389 0021397  56.3065 304.0205 15.19047230182091
JAISAT-1                
1 44419U 19038F   22295.90402972  .00013450  00000+0  63278-3 0  9997
2 44419  97.6508 267.3196 0020351  55.5394 304.7759 15.19503205182394
DUCHIFAT-3              
1 44854U 19089C   22296.54024677  .00005232  00000+0  39699-3 0  9998
2 44854  36.9666  60.5462 0007089 189.0772 265.4469 15.02020611157191
EYESAT-NANO             
1 44877U 19092E   22296.05081506  .00018096  00000+0  71939-3 0  9992
2 44877  97.4623 119.7605 0009856 269.8503  90.1605 15.25308683157794
ORBITAL FACTORY 2 (OF-2)
1 45113U 19071C   22295.88357592  .00054540  00000+0  84568-3 0  9990
2 45113  51.6342 149.3516 0008585 264.3931  95.6080 15.53425278153122
M2 PATHFINDER           
1 45727U 20037E   22296.03060436  .00001479  00000+0  14983-3 0  9998
2 45727  97.7424 109.2580 0012239 337.6151  22.4496 14.92376477125856
NETSAT-4                
1 46504U 20068U   22295.80514068  .00003023  00000+0  22205-3 0  9998
2 46504  97.7349 235.4554 0009847 255.5240 104.4893 15.04185833113180
NETSAT-3                
1 46505U 20068V   22295.82430938  .00003838  00000+0  28097-3 0  9993
2 46505  97.7347 235.3746 0008832 261.6029  98.4196 15.04151872113192
NETSAT-1                
1 46506U 20068W   22295.77915430  .00004994  00000+0  36478-3 0  9999
2 46506  97.7315 235.2432 0007539 275.3489  84.6876 15.04097531113186
NETSAT-2                
1 46507U 20068X   22295.79013459  .00004214  00000+0  30874-3 0  9991
2 46507  97.7321 235.2462 0007182 288.2957  71.7488 15.04074320113136
SAI-1 NANOCONNECT-2     
1 47701U 21015C   22295.76100829  .00019682  00000+0  67016-3 0  9999
2 47701  97.4141  12.2300 0010372   9.3558 350.7874 15.30392704 91668
WILDTRACKCUBE-SIMBA     
1 47941U 21022K   22296.22606872  .00004439  00000+0  28981-3 0  9996
2 47941  97.5152 192.9852 0022472  70.6359  84.8675 15.08144465 87246
BEESAT-6                
1 47957U 21022AB  22295.95502492  .00007883  00000+0  48228-3 0  9997
2 47957  97.5130 193.0914 0021751  70.7177 347.6099 15.10295596 87030
SMOG-1                  
1 47964U 21022AJ  22296.13832927  .00012451  00000+0  72819-3 0  9995
2 47964  97.5162 194.6120 0019785  60.3866 299.9332 15.11836948 86168
MMSATS-1                
1 47976U 98067SJ  22296.16852168  .00043613  00000+0  41630-3 0  9994
2 47976  51.6392  40.7420 0001399  16.2143  52.5005 15.66301484 90225
BCCSAT-1                
1 48041U 21022AK  22295.67049629  .00009451  00000+0  57057-3 0  9992
2 48041  97.5162 193.6064 0016518  61.1975 299.0911 15.10810581 86036
BEESAT-5                
1 48083U 21022AM  22296.21233270  .00010357  00000+0  62559-3 0  9996
2 48083  97.5119 193.3662 0021584  70.4857  80.6774 15.10682657 86207
BEESAT-7                
1 48084U 21022AN  22296.00957358  .00008933  00000+0  54342-3 0  9992
2 48084  97.5141 193.1622 0021633  70.3712 347.3533 15.10465397 85767
BEESAT-8                
1 48085U 21022AP  22295.95589299  .00006271  00000+0  38646-3 0  9993
2 48085  97.5128 193.0867 0021625  71.1899 350.0457 15.10117394 86318
LEDSAT                  
1 49069U 21073D   22296.02243515  .00006311  00000+0  39262-3 0  9999
2 49069  97.5134   6.3807 0025807 214.9031 145.0508 15.09689200 65076
HSU-SAT1                
1 53462U 98067UB  22295.88255077  .00068964  00000+0  93830-3 0  9990
2 53462  51.6391  62.2219 0007228  15.5688 344.5524 15.56899759 11127
FUTABA                  
1 53463U 98067UC  22295.79582579  .00084874  00000+0  10986-2 0  9999
2 53463  51.6377  62.3917 0007433  10.6957 349.4192 15.58142136 11117
TUMNANOSAT              
1 53464U 98067UD  22295.77398594  .00104190  00000+0  12833-2 0  9997
2 53464  51.6378  62.2459 0007734   6.8735 353.2362 15.59361751 11113
